ONEWEB-0228             
1 48780U 21045P   23358.23401376  .00000162  00000+0  39748-3 0  9998
2 48780  87.9001  79.5322 0001668 110.2056 249.9254 13.15541959125217
